{
  "type": "FeatureCollection",
  "features": [
    {
      "type": "Feature",
      "properties": {
        "norad_id": 36585,
        "name": "GPS BIIF-1  (PRN 25)",
        "group": "gnss",
        "lat": -24.130141200154522,
        "lon": -163.21580646152995,
        "alt_km": 20213.886604780255,
        "timestamp": "2025-12-25T09:48:52.534015+00:00",
        "meta_object_name": "GPS BIIF-1  (PRN 25)",
        "meta_object_id": "2010-022A",
        "meta_epoch": "2025-12-25T02:37:13.768032",
        "meta_mean_motion": 2.005538,
        "meta_eccentricity": 0.0126581,
        "meta_inclination": 54.2983,
        "meta_ra_of_asc_node": 215.575,
        "meta_arg_of_pericenter": 65.232,
        "meta_mean_anomaly": 49.6235,
        "meta_ephemeris_type": 0,
        "meta_classification_type": "U",
        "meta_norad_cat_id": 36585,
        "meta_element_set_no": 999,
        "meta_rev_at_epoch": 11410,
        "meta_bstar": 0,
        "meta_mean_motion_dot": 7.6e-07,
        "meta_mean_motion_ddot": 0,
        "tle_line1": "1 36585U 10022A   25359.10918713  .00000076  00000+0  00000+0 0  9997",
        "tle_line2": "2 36585  54.2983 215.5750 0126581  65.2320  49.6235  2.00553800114105"
      },
      "geometry": {
        "type": "Point",
        "coordinates": [
          -163.21580646152995,
          -24.130141200154522
        ]
      }
    },
    {
      "type": "Feature",
      "properties": {
        "norad_id": 36828,
        "name": "BEIDOU-2 IGSO-1 (C06)",
        "group": "gnss",
        "lat": -3.8069099192075724,
        "lon": -12.734979214010437,
        "alt_km": 35596.585364058985,
        "timestamp": "2025-12-25T09:48:52.534026+00:00",
        "meta_object_name": "BEIDOU-2 IGSO-1 (C06)",
        "meta_object_id": "2010-036A",
        "meta_epoch": "2025-12-20T21:47:26.739168",
        "meta_mean_motion": 1.00282395,
        "meta_eccentricity": 0.0051798,
        "meta_inclination": 54.2882,
        "meta_ra_of_asc_node": 164.5739,
        "meta_arg_of_pericenter": 215.2932,
        "meta_mean_anomaly": 144.6604,
        "meta_ephemeris_type": 0,
        "meta_classification_type": "U",
        "meta_norad_cat_id": 36828,
        "meta_element_set_no": 999,
        "meta_rev_at_epoch": 5631,
        "meta_bstar": 0,
        "meta_mean_motion_dot": -5.5e-07,
        "meta_mean_motion_ddot": 0,
        "tle_line1": "1 36828U 10036A   25354.90794837 -.00000055  00000+0  00000+0 0  9992",
        "tle_line2": "2 36828  54.2882 164.5739 0051798 215.2932 144.6604  1.00282395 56317"
      },
      "geometry": {
        "type": "Point",
        "coordinates": [
          -12.734979214010437,
          -3.8069099192075724
        ]
      }
    },
    {
      "type": "Feature",
      "properties": {
        "norad_id": 37210,
        "name": "BEIDOU-2 G4 (C04)",
        "group": "gnss",
        "lat": -1.5178520808526885,
        "lon": 41.58523272138628,
        "alt_km": 35818.91926193925,
        "timestamp": "2025-12-25T09:48:52.534039+00:00",
        "meta_object_name": "BEIDOU-2 G4 (C04)",
        "meta_object_id": "2010-057A",
        "meta_epoch": "2025-12-25T01:13:31.928736",
        "meta_mean_motion": 1.00271513,
        "meta_eccentricity": 0.0010416,
        "meta_inclination": 3.2131,
        "meta_ra_of_asc_node": 69.8914,
        "meta_arg_of_pericenter": 193.9185,
        "meta_mean_anomaly": 8.4739,
        "meta_ephemeris_type": 0,
        "meta_classification_type": "U",
        "meta_norad_cat_id": 37210,
        "meta_element_set_no": 999,
        "meta_rev_at_epoch": 5554,
        "meta_bstar": 0,
        "meta_mean_motion_dot": -9.1e-07,
        "meta_mean_motion_ddot": 0,
        "tle_line1": "1 37210U 10057A   25359.05106399 -.00000091  00000+0  00000+0 0  9992",
        "tle_line2": "2 37210   3.2131  69.8914 0010416 193.9185   8.4739  1.00271513 55540"
      },
      "geometry": {
        "type": "Point",
        "coordinates": [
          41.58523272138628,
          -1.5178520808526885
        ]
      }
    },
    {
      "type": "Feature",
      "properties": {
        "norad_id": 37256,
        "name": "BEIDOU-2 IGSO-2 (C07)",
        "group": "gnss",
        "lat": 45.79732049364251,
        "lon": -17.69850858123166,
        "alt_km": 35936.73087020324,
        "timestamp": "2025-12-25T09:48:52.534051+00:00",
        "meta_object_name": "BEIDOU-2 IGSO-2 (C07)",
        "meta_object_id": "2010-068A",
        "meta_epoch": "2025-12-24T17:01:55.972704",
        "meta_mean_motion": 1.00282798,
        "meta_eccentricity": 0.0048511,
        "meta_inclination": 47.864,
        "meta_ra_of_asc_node": 274.0027,
        "meta_arg_of_pericenter": 216.2647,
        "meta_mean_anomaly": 326.7558,
        "meta_ephemeris_type": 0,
        "meta_classification_type": "U",
        "meta_norad_cat_id": 37256,
        "meta_element_set_no": 999,
        "meta_rev_at_epoch": 5504,
        "meta_bstar": 0,
        "meta_mean_motion_dot": -1.92e-06,
        "meta_mean_motion_ddot": 0,
        "tle_line1": "1 37256U 10068A   25358.70967561 -.00000192  00000+0  00000+0 0  9993",
        "tle_line2": "2 37256  47.8640 274.0027 0048511 216.2647 326.7558  1.00282798 55040"
      },
      "geometry": {
        "type": "Point",
        "coordinates": [
          -17.69850858123166,
          45.79732049364251
        ]
      }
    },
    {
      "type": "Feature",
      "properties": {
        "norad_id": 37384,
        "name": "BEIDOU-2 IGSO-3 (C08)",
        "group": "gnss",
        "lat": -44.85719223791013,
        "lon": 10.115337077838129,
        "alt_km": 35864.70624865855,
        "timestamp": "2025-12-25T09:48:52.534063+00:00",
        "meta_object_name": "BEIDOU-2 IGSO-3 (C08)",
        "meta_object_id": "2011-013A",
        "meta_epoch": "2025-12-24T13:36:08.179776",
        "meta_mean_motion": 1.00268125,
        "meta_eccentricity": 0.00352821,
        "meta_inclination": 62.1584,
        "meta_ra_of_asc_node": 41.8043,
        "meta_arg_of_pericenter": 187.8377,
        "meta_mean_anomaly": 174.9924,
        "meta_ephemeris_type": 0,
        "meta_classification_type": "U",
        "meta_norad_cat_id": 37384,
        "meta_element_set_no": 999,
        "meta_rev_at_epoch": 5391,
        "meta_bstar": 0,
        "meta_mean_motion_dot": -1.63e-06,
        "meta_mean_motion_ddot": 0,
        "tle_line1": "1 37384U 11013A   25358.56676134 -.00000163  00000+0  00000+0 0  9991",
        "tle_line2": "2 37384  62.1584  41.8043 0035282 187.8377 174.9924  1.00268125 53913"
      },
      "geometry": {
        "type": "Point",
        "coordinates": [
          10.115337077838129,
          -44.85719223791013
        ]
      }
    },
    {
      "type": "Feature",
      "properties": {
        "norad_id": 37605,
        "name": "GSAT-8 (GAGAN/PRN 127)",
        "group": "gnss",
        "lat": -0.9213102516184303,
        "lon": -63.514683737238265,
        "alt_km": 35751.998549716634,
        "timestamp": "2025-12-25T09:48:52.534075+00:00",
        "meta_object_name": "GSAT-8 (GAGAN/PRN 127)",
        "meta_object_id": "2011-022A",
        "meta_epoch": "2025-12-25T01:20:23.235072",
        "meta_mean_motion": 1.00271536,
        "meta_eccentricity": 0.0008997,
        "meta_inclination": 1.6797,
        "meta_ra_of_asc_node": 84.0649,
        "meta_arg_of_pericenter": 186.3622,
        "meta_mean_anomaly": 258.5588,
        "meta_ephemeris_type": 0,
        "meta_classification_type": "U",
        "meta_norad_cat_id": 37605,
        "meta_element_set_no": 999,
        "meta_rev_at_epoch": 5147,
        "meta_bstar": 0,
        "meta_mean_motion_dot": 1.05e-06,
        "meta_mean_motion_ddot": 0,
        "tle_line1": "1 37605U 11022A   25359.05582448  .00000105  00000+0  00000+0 0  9991",
        "tle_line2": "2 37605   1.6797  84.0649 0008997 186.3622 258.5588  1.00271536 51478"
      },
      "geometry": {
        "type": "Point",
        "coordinates": [
          -63.514683737238265,
          -0.9213102516184303
        ]
      }
    },
    {
      "type": "Feature",
      "properties": {
        "norad_id": 37763,
        "name": "BEIDOU-2 IGSO-4 (C09)",
        "group": "gnss",
        "lat": 10.205266944178849,
        "lon": -20.144634660978056,
        "alt_km": 35487.689867094596,
        "timestamp": "2025-12-25T09:48:52.534087+00:00",
        "meta_object_name": "BEIDOU-2 IGSO-4 (C09)",
        "meta_object_id": "2011-038A",
        "meta_epoch": "2025-12-21T10:06:26.864064",
        "meta_mean_motion": 1.00280083,
        "meta_eccentricity": 0.01491557,
        "meta_inclination": 54.5854,
        "meta_ra_of_asc_node": 167.2693,
        "meta_arg_of_pericenter": 230.0944,
        "meta_mean_anomaly": 299.1265,
        "meta_ephemeris_type": 0,
        "meta_classification_type": "U",
        "meta_norad_cat_id": 37763,
        "meta_element_set_no": 999,
        "meta_rev_at_epoch": 5286,
        "meta_bstar": 0,
        "meta_mean_motion_dot": 5.9e-07,
        "meta_mean_motion_ddot": 0,
        "tle_line1": "1 37763U 11038A   25355.42114426  .00000059  00000+0  00000+0 0  9995",
        "tle_line2": "2 37763  54.5854 167.2693 0149155 230.0944 299.1265  1.00280083 52867"
      },
      "geometry": {
        "type": "Point",
        "coordinates": [
          -20.144634660978056,
          10.205266944178849
        ]
      }
    }
  ]
}